OBJECT_NAME,OBJECT_ID,EPOCH,MEAN_MOTION,ECCENTRICITY,INCLINATION,RA_OF_ASC_NODE,ARG_OF_PERICENTER,MEAN_ANOMALY,EPHEMERIS_TYPE,CLASSIFICATION_TYPE,NORAD_CAT_ID,ELEMENT_SET_NO,REV_AT_EPOCH,BSTAR,MEAN_MOTION_DOT,MEAN_MOTION_DDOT
STARLINK-35291,2025-235AB,2026-06-15T04:26:42.234720,15.30203626,.0001313,53.1580,152.7498,100.8271,259.2878,0,U,66083,999,3781,.3932E-3,.11305E-3,0
STARLINK-35379,2025-235AC,2026-06-15T04:08:28.445280,15.30164683,.0001064,53.1582,152.6684,109.3144,250.7972,0,U,66084,999,3784,.37719E-3,.10816E-3,0
STARLINK-35370,2025-235AD,2026-06-15T04:17:35.153376,15.30203672,.0001133,53.1575,152.7095,87.2860,272.8271,0,U,66085,999,3781,.51203E-3,.14838E-3,0
STARLINK-35596,2025-236A,2026-06-14T21:37:17.317632,15.30201569,.0001213,53.1607,12.6538,84.1824,275.9315,0,U,66086,999,3782,.69382E-3,.20247E-3,0
STARLINK-35563,2025-236B,2026-06-14T20:17:43.988064,15.34410412,.00013001,53.1609,12.3094,84.9685,275.1466,0,U,66087,999,3776,.82231577E-3,.27518E-3,0
STARLINK-35461,2025-236C,2026-06-14T20:27:23.040864,15.30206638,.00010374,53.1612,12.3511,82.7107,277.4012,0,U,66088,999,3776,.70948111E-3,.20717E-3,0
STARLINK-35571,2025-236D,2026-06-14T20:41:03.575616,15.30207636,.00007367,53.1590,12.4092,74.2084,285.8998,0,U,66089,999,3782,.8943991E-3,.2623E-3,0
STARLINK-35570,2025-236E,2026-06-14T20:18:15.007392,15.30196333,.00010869,53.1614,12.3137,78.3468,281.7655,0,U,66090,999,3782,.52014486E-3,.15076E-3,0
STARLINK-35532,2025-236F,2026-06-14T20:09:08.848800,15.30209406,.00011883,53.1620,12.2675,88.4040,271.7097,0,U,66091,999,3782,.58801841E-3,.17101E-3,0
STARLINK-35527,2025-236G,2026-06-13T19:53:13.637184,15.34407200,.00013103,53.1588,16.6342,134.3486,225.7624,0,U,66092,999,3767,.99340083E-3,.33344E-3,0
STARLINK-35500,2025-236H,2026-06-14T20:45:36.870048,15.30213759,.00008932,53.1598,12.4264,70.8397,289.2701,0,U,66093,999,3782,.71521775E-3,.20892E-3,0
STARLINK-35528,2025-236J,2026-06-14T20:36:30.724416,15.30147412,.00013569,53.1601,12.3871,85.9219,274.1937,0,U,66094,999,3782,.32049613E-3,.9129E-4,0
STARLINK-35559,2025-236K,2026-06-14T20:31:56.311104,15.30215008,.00011252,53.1609,12.3724,82.5330,277.5799,0,U,66095,999,3782,.68830219E-3,.20091E-3,0
STARLINK-34386,2025-236L,2026-06-14T20:22:49.325664,15.30211924,.00007463,53.1612,12.3286,83.8382,276.2704,0,U,66096,999,3782,.75487744E-3,.22073E-3,0
STARLINK-35613,2025-236M,2026-06-14T20:34:58.600416,15.30216749,.00010284,53.1605,12.3832,89.8878,270.2241,0,U,66097,999,3782,.76572603E-3,.224E-3,0
STARLINK-34206,2025-236N,2026-06-13T20:02:18.780576,15.34407222,.00014562,53.1597,16.6706,144.5639,215.5460,0,U,66098,999,3766,.94088851E-3,.31554E-3,0
STARLINK-34460,2025-236P,2026-06-14T20:13:43.165344,15.30212362,.00012265,53.1609,12.2874,69.0925,291.0207,0,U,66099,999,3782,.77251216E-3,.22599E-3,0
STARLINK-35609,2025-236Q,2026-06-14T21:30:18.847008,15.34409715,.0001321,53.1603,11.9159,89.0827,271.0326,0,U,66100,999,3777,.51587E-3,.17098E-3,0
STARLINK-35595,2025-236R,2026-06-14T20:23:47.974848,15.34402479,.00009177,53.1609,12.3355,80.4560,279.6547,0,U,66101,999,3776,.69732151E-3,.23259E-3,0
STARLINK-35599,2025-236S,2026-06-14T21:00:00.956448,15.34425679,.000113,53.1589,11.7841,93.3272,266.7860,0,U,66102,999,3777,.10186789E-2,.34227E-3,0
STARLINK-35622,2025-236T,2026-06-14T20:02:34.728288,15.34406625,.00014034,53.1614,12.2432,86.2094,273.9069,0,U,66103,999,3782,.78359227E-3,.26197E-3,0
STARLINK-35452,2025-236U,2026-06-14T21:09:05.062176,15.34444297,.000126,53.1597,11.8215,95.9112,264.2034,0,U,66104,999,3783,.76143E-3,.25474E-3,0
STARLINK-35561,2025-236V,2026-06-14T20:32:52.478880,15.34417581,.00011088,53.1608,12.3726,95.0337,265.0792,0,U,66105,999,3776,.80447039E-3,.26917E-3,0
STARLINK-35584,2025-236W,2026-06-14T20:56:59.072352,15.34424986,.0001126,53.1585,11.7675,95.0728,265.0403,0,U,66106,999,3783,.10118091E-2,.33992E-3,0
STARLINK-35593,2025-236X,2026-06-14T21:24:15.259392,15.34407934,.0001131,53.1615,11.8833,86.8494,273.2638,0,U,66107,999,3783,.6252E-3,.20811E-3,0
STARLINK-35590,2025-236Y,2026-06-15T00:00:04.000320,15.34355590,.0000787,53.1596,11.6747,76.3827,10.5788,0,U,66108,999,588,.18079E-2,.61117E-3,0
STARLINK-35545,2025-236Z,2026-06-14T20:08:38.273568,15.34404547,.00013646,53.1617,12.2656,92.6732,267.4427,0,U,66109,999,3782,.61645845E-3,.20512E-3,0
STARLINK-35427,2025-236AA,2026-06-14T20:07:47.428896,15.30215023,.00010348,53.1605,12.9728,75.4009,284.7106,0,U,66110,999,3781,.97885875E-3,.28757E-3,0
STARLINK-35574,2025-236AB,2026-06-14T20:04:45.635520,15.30227578,.00011733,53.1610,12.9591,80.1733,279.9400,0,U,66111,999,3775,.70609116E-3,.20629E-3,0
STARLINK-35531,2025-236AC,2026-06-14T20:44:05.654112,15.30210472,.00011602,53.1602,12.4198,102.1480,257.9651,0,U,66112,999,3782,.54878661E-3,.15934E-3,0
STARLINK-35491,2025-236AD,2026-06-14T20:01:42.622176,15.30208420,.00011483,53.1607,12.9461,89.4709,270.6424,0,U,66113,999,3781,.97662847E-3,.28685E-3,0
STARLINK-35496,2025-237A,2026-06-15T02:56:22.570080,15.34402913,.0001565,53.1617,306.6547,81.5757,278.5423,0,U,66114,999,3753,.74574E-3,.24906E-3,0
STARLINK-35428,2025-237B,2026-06-15T02:36:35.845344,15.30215835,.0001548,53.1606,307.2833,86.2360,273.8818,0,U,66115,999,3751,.62763E-3,.18284E-3,0
STARLINK-35573,2025-237C,2026-06-15T04:00:01.998720,15.34368844,.0001325,53.1603,306.5621,79.2466,107.0235,0,U,66116,999,581,.83567E-3,.27935E-3,0
STARLINK-35572,2025-237D,2026-06-15T02:27:28.095264,15.30212235,.0001414,53.1607,307.2388,74.1722,285.9435,0,U,66117,999,3752,.83593E-3,.2449E-3,0
STARLINK-35468,2025-237E,2026-06-15T02:45:42.155136,15.30198974,.0001198,53.1613,307.3204,88.6398,271.4740,0,U,66118,999,3752,.38309E-3,.11003E-3,0
STARLINK-35547,2025-237F,2026-06-15T02:03:09.086976,15.30214351,.0000944,53.1592,307.1344,99.0103,261.1005,0,U,66119,999,3752,.87112E-3,.25541E-3,0
STARLINK-35553,2025-237G,2026-06-14T15:47:41.167968,15.34405530,.00012757,53.1627,308.7356,83.9807,276.1341,0,U,66120,999,3746,.35547736E-3,.11655E-3,0
STARLINK-35631,2025-237H,2026-06-15T02:42:40.139712,15.30206169,.000129,53.1602,307.3056,87.5088,272.6060,0,U,66121,999,3752,.52219E-3,.15141E-3,0
STARLINK-35653,2025-237J,2026-06-15T02:24:25.915680,15.30183498,.0001623,53.1607,307.2221,91.2941,268.8246,0,U,66122,999,3752,.60707E-3,.17654E-3,0
STARLINK-35628,2025-237K,2026-06-15T04:00:01.998720,15.33527288,.0001564,53.1604,306.6147,93.2462,64.8375,0,U,66123,999,586,.84119E-3,.27374E-3,0
STARLINK-35645,2025-237L,2026-06-14T14:44:10.927968,15.34380907,.00013424,53.1610,309.1693,100.0822,260.0332,0,U,66124,999,3745,.44204448E-3,.14579E-3,0
STARLINK-35649,2025-237M,2026-06-15T04:00:01.998720,15.33487676,.0001141,53.1609,306.5059,97.1270,114.9943,0,U,66125,999,570,.15966E-2,.52402E-3,0
STARLINK-35658,2025-237N,2026-06-15T02:50:19.277952,15.34399945,.0001748,53.1622,306.6269,72.4624,287.6569,0,U,66126,999,3752,.63006E-3,.20971E-3,0
STARLINK-35629,2025-237P,2026-06-15T02:53:18.059424,15.30212148,.0001214,53.1624,307.3456,84.1460,275.9680,0,U,66127,999,3752,.90786E-3,.26636E-3,0
STARLINK-35612,2025-237Q,2026-06-15T02:41:08.872800,15.30206598,.000149,53.1617,307.2993,87.1867,272.9305,0,U,66128,999,3752,.77859E-3,.22776E-3,0
STARLINK-35632,2025-237R,2026-06-14T15:33:39.402144,15.30209931,.00010549,53.1617,309.3817,90.3947,269.7175,0,U,66129,999,3745,.86777684E-3,.25438E-3,0
STARLINK-35637,2025-237S,2026-06-15T02:22:54.645312,15.30212537,.00014,53.1607,307.2168,77.0086,283.1071,0,U,66130,999,3752,.78562E-3,.2299E-3,0
STARLINK-35630,2025-237T,2026-06-15T02:47:17.515680,15.34409061,.0001849,53.1613,306.6128,68.8114,291.3086,0,U,66131,999,3753,.10372E-2,.3484E-3,0
STARLINK-34412,2025-237U,2026-06-15T04:00:01.998720,15.34372405,.0000867,53.1599,306.6502,97.8981,41.8639,0,U,66132,999,586,.83486E-3,.27911E-3,0
STARLINK-35520,2025-237V,2026-06-15T02:53:20.683392,15.34405597,.0001312,53.1617,306.6389,82.9337,277.1814,0,U,66133,999,3753,.86343E-3,.28914E-3,0
STARLINK-35525,2025-237W,2026-06-14T16:21:00.942624,15.34404709,.000105,53.1599,308.8738,79.8527,280.2594,0,U,66134,999,3746,.92253805E-3,.30926E-3,0
STARLINK-34852,2025-237X,2026-06-15T02:33:32.788800,15.30204459,.0001155,53.1606,307.2601,89.5418,270.5715,0,U,66135,999,3748,.72462E-3,.21166E-3,0
STARLINK-35592,2025-237Y,2026-06-15T03:02:26.068704,15.34414251,.0001286,53.1614,306.6773,73.3300,286.7844,0,U,66136,999,3753,.89855E-3,.30118E-3,0
STARLINK-35576,2025-237Z,2026-06-15T04:00:01.998720,15.34373563,.0001263,53.1612,306.4643,100.6018,132.2133,0,U,66137,999,585,.85899E-3,.28733E-3,0
STARLINK-35623,2025-237AA,2026-06-15T02:50:15.689760,15.30206888,.0001394,53.1604,307.3287,98.1579,261.9579,0,U,66138,999,3752,.52062E-3,.15095E-3,0
STARLINK-35549,2025-237AB,2026-06-14T16:22:07.276224,15.30209005,.0001415,53.1594,308.8761,84.7983,275.3179,0,U,66139,999,3746,.56079025E-3,.16291E-3,0
STARLINK-35625,2025-237AC,2026-06-14T16:08:54.184704,15.34376087,.00008383,53.1611,308.8204,68.3160,291.7932,0,U,66140,999,3746,.55440388E-3,.18387E-3,0
STARLINK-35603,2025-237AD,2026-06-14T21:11:28.792896,15.34354434,.00011438,53.1599,307.9947,67.4407,292.6717,0,U,66141,999,3749,.75378514E-3,.2514E-3,0
STARLINK-35318,2025-240A,2026-06-15T04:27:24.407424,15.34411836,.0000941,53.1611,328.6796,77.0180,283.0928,0,U,66146,999,3698,.70249E-3,.23442E-3,0
STARLINK-33948,2025-240B,2026-06-15T04:31:08.440032,15.30186686,.0001093,53.1610,330.1062,81.2444,278.8681,0,U,66147,999,3696,.69758E-3,.20349E-3,0
STARLINK-35081,2025-240C,2026-06-15T04:21:20.541600,15.34405273,.0000688,53.1611,328.6396,72.5312,287.5765,0,U,66148,999,3693,.62721E-3,.20878E-3,0
STARLINK-35601,2025-240D,2026-06-15T04:00:44.600832,15.30209363,.0001311,53.1595,329.9761,83.7679,276.3471,0,U,66149,999,3691,.36389E-3,.10436E-3,0
STARLINK-35605,2025-240E,2026-06-15T04:08:20.427360,15.30211381,.0001144,53.1625,330.0057,88.2079,271.9052,0,U,66150,999,3691,.35951E-3,.10307E-3,0
STARLINK-35540,2025-240F,2026-06-14T18:43:25.701312,15.34397346,.00012237,53.1622,330.4064,81.9267,278.1874,0,U,66151,999,3687,.65873566E-3,.21943E-3,0
